42959,IRIDIUM 119,2017,100.4,860.0,+,86.4,Active,1,LEO,USA,USA,Commercial/Government,Communications,Falcon,1 42959U 17061E   24050.88104440  .00000479  00000+0  16407-3 0  9994,2 42959  86.3991  19.7392 0001979  85.3423 274.7999 14.34221021333229,14.34221021,0.0001979,LEO
42960,IRIDIUM 107,2017,100.4,860.0,+,86.4,Active,1,LEO,USA,USA,Commercial/Government,Communications,Falcon,1 42960U 17061F   24051.45822454  .00000403  00000+0  13693-3 0  9993,2 42960  86.3992  19.5141 0002068  94.3738 265.7694 14.34217737333312,14.34217737,0.0002068,LEO
42961,IRIDIUM 132,2017,100.4,860.0,+,86.4,Active,1,LEO,USA,USA,Commercial/Government,Communications,Falcon,1 42961U 17061G   24051.60410458  .00000578  00000+0  19928-3 0  9998,2 42961  86.3991  19.4386 0002027  91.5786 268.5642 14.34218727333335,14.34218727,0.0002027,LEO
42962,IRIDIUM 136,2017,100.4,860.0,+,86.4,Active,1,LEO,USA,USA,Commercial/Government,Communications,Falcon,1 42962U 17061H   24051.42650809  .00000379  00000+0  12834-3 0  9993,2 42962  86.3992  19.5154 0002052  80.6354 279.5074 14.34217606333324,14.34217606,0.0002052,LEO
42963,IRIDIUM 139,2017,100.4,860.0,+,86.41,Active,1,LEO,USA,USA,Commercial/Government,Communications,Falcon,1 42963U 17061J   24051.43285438  .00000091  00000+0  25384-4 0  9993,2 42963  86.3992  19.5612 0002105  92.3293 267.8144 14.34216104333336,14.34216104,0.0002105,LEO
42964,IRIDIUM 125,2017,100.4,860.0,+,86.4,Active,1,LEO,USA,USA,Commercial/Government,Communications,Falcon,1 42964U 17061K   24051.42016631  .00000343  00000+0  11546-3 0  9994,2 42964  86.3995  19.6120 0001771  88.3817 271.7581 14.34215746333341,14.34215746,0.0001771,LEO
43070,IRIDIUM 135,2017,100.4,860.0,+,86.4,Active,1,LEO,USA,USA,Commercial/Government,Communications,Falcon,1 43070U 17083A   24051.46406167  .00000301  00000+0  10052-3 0  9993,2 43070  86.3991 316.3158 0002412  87.8136 272.3336 14.34216242322643,14.34216242,0.0002412,LEO
43071,IRIDIUM 138,2017,100.4,860.0,+,86.4,Active,1,LEO,USA,USA,Commercial/Government,Communications,Falcon,1 43071U 17083B   24051.48943402  .00000039  00000+0  70334-5 0  9993,2 43071  86.3979 316.0372 0001834  81.6877 278.4526 14.34217700322633,14.342177,0.0001834,LEO
